STARLINK-35946          
1 66522U 25265G   26203.40694373  .00015384  00000+0  56712-3 0  9994
2 66522  43.0003 237.3866 0001615 280.5400  79.5270 15.27594892 37710
STARLINK-35969          
1 66523U 25265H   26203.44791844  .00019528  00000+0  71687-3 0  9992
2 66523  42.9921 236.8280 0000125  42.6072 317.4789 15.27597726 37728
STARLINK-35687          
1 66524U 25265J   26203.48132433  .00019177  00000+0  70392-3 0  9992
2 66524  43.0036 237.0962 0001404 318.0212  42.0532 15.27610824 37727
STARLINK-35975          
1 66525U 25265K   26203.51458428  .00024717  00000+0  90374-3 0  9990
2 66525  43.0011 236.4788 0001688 289.1261  70.9408 15.27614893 37739
STARLINK-35932          
1 66526U 25265L   26203.51201557  .00012301  00000+0  45563-3 0  9996
2 66526  42.9987 236.4552 0003077 256.9809 103.0699 15.27589022 37738
STARLINK-35935          
1 66527U 25265M   26203.46589626  .00029125  00000+0  10641-2 0  9997
2 66527  42.9996 236.9679 0001885 249.2866 110.7784 15.27568403 37726
STARLINK-35928          
1 66528U 25265N   26203.44020275  .00028039  00000+0  10242-2 0  9996
2 66528  42.9993 236.7728 0001670 269.5634  90.5026 15.27591379 37729
STARLINK-35933          
1 66529U 25265P   26203.47746849  .00016164  00000+0  59524-3 0  9995
2 66529  43.0029 237.0648 0001620 284.1275  75.9396 15.27601905 37720
STARLINK-35961          
1 66530U 25265Q   26203.46333255  .00011418  00000+0  42345-3 0  9999
2 66530  42.9980 236.9515 0001124 276.2544  83.8180 15.27607451 37728
STARLINK-35960          
1 66531U 25265R   26203.49273452  .00014755  00000+0  54434-3 0  9994
2 66531  43.0015 236.3139 0002514 257.0553 103.0018 15.27596554 37734
STARLINK-35914          
1 66532U 25265S   26203.46461668  .00028860  00000+0  10534-2 0  9994
2 66532  43.0003 236.9611 0001769 271.5823  88.4826 15.27603802 37722
STARLINK-35707          
1 66533U 25265T   26203.45305183  .00013961  00000+0  51564-3 0  9998
2 66533  42.9980 236.8721 0001530 273.0504  87.0173 15.27596000 37726
STARLINK-35976          
1 66534U 25265U   26203.41466443  .00018398  00000+0  67590-3 0  9997
2 66534  43.0033 237.4491 0003445   9.1917 350.8997 15.27603874 37714
STARLINK-35514          
1 66535U 25265V   26203.47618541  .00014609  00000+0  53904-3 0  9997
2 66535  42.9993 237.0449 0000534 253.6896 106.3897 15.27597796 37724
STARLINK-35640          
1 66536U 25265W   26203.46204949  .00026956  00000+0  98454-3 0  9997
2 66536  42.9988 236.9361 0001346 279.6208  80.4492 15.27611696 37726
STARLINK-35582          
1 66537U 25265X   26203.51972213  .00014963  00000+0  55191-3 0  9996
2 66537  42.9987 236.5091 0001558 270.4519  89.6154 15.27595509 37732
STARLINK-35577          
1 66538U 25265Y   26203.45048421  .00013484  00000+0  49812-3 0  9995
2 66538  42.9990 236.8476 0001365 278.6373  81.4324 15.27613338 37720
STARLINK-35697          
1 66539U 25265Z   26203.44405898  .00022716  00000+0  83144-3 0  9994
2 66539  42.9991 236.7980 0001512 293.0613  67.0079 15.27619716 37726
STARLINK-35818          
1 66540U 25265AA  26203.48518459  .00016817  00000+0  61891-3 0  9998
2 66540  42.9965 237.1192 0001467   7.3446 352.7427 15.27596653 37723
STARLINK-35796          
1 66541U 25265AB  26203.46077218  .00017654  00000+0  64913-3 0  9998
2 66541  42.9938 236.9297 0001750  12.3477 347.7417 15.27599988 37729
STARLINK-35833          
1 66542U 25265AC  26203.48775850  .00018329  00000+0  67319-3 0  9991
2 66542  42.9998 237.1414 0001478 304.6741  55.3971 15.27615853 37725
STARLINK-35315          
1 66543U 25265AD  26203.40437773  .00015356  00000+0  56614-3 0  9996
2 66543  42.9962 237.3634 0000259 356.0716   4.0134 15.27593163 37712
STARLINK-35728          
1 66544U 25265AE  26203.50173242  .00016321  00000+0  60113-3 0  9998
2 66544  43.0007 236.3713 0001476 277.6227  82.4457 15.27588873 37731
STARLINK-35699          
1 66557U 25268A   26202.59321275  .00015880  00000+0  58498-3 0  9996
2 66557  42.9981 311.2744 0001359 273.5192  86.5504 15.27599925 38433
STARLINK-35695          
1 66558U 25268B   26203.30861945  .00007111  00000+0  26782-3 0  9999
2 66558  43.0027 307.1897 0002193 269.8783  90.1817 15.27563163 38546
STARLINK-35419          
1 66559U 25268C   26203.02521477  .00016692  00000+0  61441-3 0  9997
2 66559  43.0027 308.4959 0002181 270.0815  89.9786 15.27595565 38505
STARLINK-35411          
1 66560U 25268D   26202.69571406  .00015251  00000+0  56217-3 0  9993
2 66560  43.0018 310.3227 0001420 268.1242  91.9447 15.27603126 38458
STARLINK-35305          
1 66561U 25268E   26202.68800170  .00023654  00000+0  86559-3 0  9994
2 66561  43.0024 310.2631 0001783 265.6178  94.4470 15.27608105 38452
STARLINK-35579          
1 66562U 25268F   26202.62647268  .00013898  00000+0  51326-3 0  9999
2 66562  43.0025 310.6609 0001555 269.6647  90.4027 15.27602646 38442
STARLINK-35437          
1 66563U 25268G   26203.33801461  .00016148  00000+0  59466-3 0  9990
2 66563  43.0029 306.5437 0001898 292.1948  67.8702 15.27600186 38552
STARLINK-35358          
1 66564U 25268H   26202.61490957  .00012298  00000+0  45533-3 0  9997
2 66564  43.0020 310.5736 0001171 275.4342  84.6376 15.27604912 38440
STARLINK-35893          
1 66565U 25268J   26203.59184824  .00015344  00000+0  56581-3 0  9999
2 66565  42.9985 305.0029 0001106 280.2721  79.8006 15.27586953 38592
STARLINK-35871          
1 66566U 25268K   26203.58927814  .00015922  00000+0  58674-3 0  9990
2 66566  43.0062 304.9863 0003228 286.8286  73.2211 15.27585117 38597
STARLINK-35825          
1 66567U 25268L   26203.32387449  .00021276  00000+0  78007-3 0  9998
2 66567  43.0013 306.4308 0001525 277.9737  82.0942 15.27596293 38557
STARLINK-35803          
1 66568U 25268M   26203.31873546  .00014502  00000+0  53488-3 0  9996
2 66568  42.9967 306.3921 0000495 281.7976  78.2820 15.27617062 38557
STARLINK-35835          
1 66569U 25268N   26202.59693087  .00024685  00000+0  90285-3 0  9995
2 66569  43.0010 310.4328 0001375 272.7853  87.2841 15.27606059 38443
STARLINK-35834          
1 66570U 25268P   26203.31374578  .00020759  00000+0  76123-3 0  9992
2 66570  42.9977 307.2220 0001103 157.4391 202.6509 15.27602153 38541
STARLINK-35836          
1 66571U 25268Q   26203.57143828  .00015455  00000+0  56950-3 0  9996
2 66571  42.9992 305.7145 0001211 104.6672 255.4314 15.27606821 38584
STARLINK-35870          
1 66572U 25268R   26203.56501271  .00013648  00000+0  50433-3 0  9998
2 66572  43.0019 305.6696 0001326 271.7389  88.3311 15.27594882 38588
STARLINK-35650          
1 66573U 25268S   26203.56115404  .00015916  00000+0  58632-3 0  9997
2 66573  42.9977 305.6387 0000832 241.4207 118.6561 15.27598412 38588
STARLINK-35812          
1 66574U 25268T   26203.29577650  .00019871  00000+0  72935-3 0  9999
2 66574  42.9975 307.0870 0001094 291.6999  68.3736 15.27593938 38545
STARLINK-35810          
1 66575U 25268U   26203.22651791  .00020997  00000+0  76997-3 0  9995
2 66575  42.9997 307.4267 0001445 286.6783  73.3910 15.27596845 38538
STARLINK-35814          
1 66576U 25268V   26203.54958841  .00021264  00000+0  77946-3 0  9990
2 66576  42.9998 305.5486 0001399 267.2971  92.7720 15.27603260 38583
STARLINK-35815          
1 66577U 25268W   26202.62776098  .00029983  00000+0  10941-2 0  9998
2 66577  43.0067 310.6721 0001022 311.7131  48.3633 15.27598276 38443
STARLINK-35743          
1 66578U 25268X   26203.34315718  .00013604  00000+0  50278-3 0  9998
2 66578  43.0034 306.5801 0000770 263.1883  96.8881 15.27591769 38559
STARLINK-35868          
1 66579U 25268Y   26202.62004851  .00013512  00000+0  49928-3 0  9990
2 66579  43.0020 310.6095 0001813 286.8520  73.2132 15.27603753 38448
STARLINK-35872          
1 66580U 25268Z   26203.00850924  .00018825  00000+0  69136-3 0  9990
2 66580  42.9985 308.3633 0001857 265.7482  94.3158 15.27602640 38504
STARLINK-35744          
1 66581U 25268AA  26203.33158746  .00017508  00000+0  64356-3 0  9996
2 66581  43.0042 306.4866 0003439 283.5489  76.4980 15.27612426 38553
STARLINK-35746          
1 66582U 25268AB  26203.32516257  .00031445  00000+0  11465-2 0  9999
2 66582  43.0002 306.4366 0000884 256.6669 103.4084 15.27603645 38556
STARLINK-35941          
1 66583U 25268AC  26203.58285471  .00018071  00000+0  66421-3 0  9992
2 66583  42.9955 304.9269 0000297 161.5935 198.4927 15.27599533 38599
STARLINK-35939          
1 66584U 25268AD  26203.31745199  .00017804  00000+0  65460-3 0  9997
2 66584  43.0037 306.3756 0002358 270.3567  89.7014 15.27597086 38556
STARLINK-35963          
1 66585U 25268AE  26203.30732406  .00021380  00000+0  78375-3 0  9997
2 66585  42.9974 307.1712 0000704 270.4392  89.6379 15.27599238 38549
STARLINK-36076          
1 66588U 25270A   26203.48067117  .00018211  00000+0  66905-3 0  9997
2 66588  43.0000  14.6751 0001149 227.1189 132.9566 15.27610570 38323
STARLINK-35447          
1 66589U 25270B   26203.50122427  .00025329  00000+0  92622-3 0  9990
2 66589  42.9991  14.8359 0000580 152.2941 207.7941 15.27600743 38430
STARLINK-35429          
1 66590U 25270C   26203.53205841  .00014417  00000+0  53203-3 0  9995
2 66590  42.9991  15.0602 0001467 201.1721 158.9071 15.27603491 38435
STARLINK-36058          
1 66591U 25270D   26202.85249928  .00015480  00000+0  57054-3 0  9993
2 66591  43.0008  18.5613 0001225 269.2362  90.8349 15.27598412 38220
STARLINK-36066          
1 66592U 25270E   26203.51921269  .00020020  00000+0  73457-3 0  9994
2 66592  43.0043  14.9680 0001514 269.5700  90.4978 15.27602149 38221
STARLINK-36031          
1 66593U 25270F   26203.48709201  .00019636  00000+0  72083-3 0  9996
2 66593  42.9974  14.7201 0000638 251.7272 108.3510 15.27596681 38328
STARLINK-36032          
1 66594U 25270G   26203.51664100  .00027611  00000+0  10086-2 0  9995
2 66594  43.0037  14.9414 0001450 250.5605 109.5090 15.27599338 38136
STARLINK-35711          
1 66595U 25270H   26202.83707428  .00019817  00000+0  72698-3 0  9998
2 66595  43.0028  18.4427 0003282 286.7739  73.2753 15.27611831 38332
